#aV2020  3  3  0  0  0.00000000     288 DD+AD WGS84 FIT  NGA
## 2095 172800.00000000   300.00000000 58911 0.0000000000000
+   32     1  2  3  4  5  6  7  8  9 10 11 12 13 14 15 16 17
+         18 19 20 21 22 23 24 25 26 27 28 29 30 31 32  0  0
+          0  0  0  0  0  0  0  0  0  0  0  0  0  0  0  0  0
+          0  0  0  0  0  0  0  0  0  0  0  0  0  0  0  0  0
+          0  0  0  0  0  0  0  0  0  0  0  0  0  0  0  0  0
++         2  2  2  2  2  2  2  2  2  2  2  2  2  2  2  2  2
++         2  2  2  2  2  2  2  2  2  2  2  2  2  2  2  0  0
++         0  0  0  0  0  0  0  0  0  0  0  0  0  0  0  0  0
++         0  0  0  0  0  0  0  0  0  0  0  0  0  0  0  0  0
++         0  0  0  0  0  0  0  0  0  0  0  0  0  0  0  0  0
%c cc cc ccc ccc cccc cccc cccc cccc ccccc ccccc ccccc ccccc
%c cc cc ccc ccc cccc cccc cccc cccc ccccc ccccc ccccc ccccc
%f  0.0000000  0.000000000  0.00000000000  0.000000000000000
%f  0.0000000  0.000000000  0.00000000000  0.000000000000000
%i    0    0    0    0      0      0      0      0         0
%i    0    0    0    0      0      0      0      0         0
/*      NGA, ST. LOUIS,MO.                                  
/*   EPHEMERIS COMPUTED FROM 2 DAYS OF DATA                 
/*   EPOCHA v5 SMOOTHER                                     
/*   G1762 IERS2010 SATAF SATAPC                            
*  2020  3  3  1 25  0.00000000
P  1  18523.130931   8868.453975  16818.321368   -313.262076                    
V  1   9995.558156  19174.574269 -20540.747370     -0.123164                    
P  2 -13361.793884 -22851.767553   3254.779899   -415.005638                    
V  2   4196.004672   1131.742742  31290.309124     -0.067810                    
P  3  17495.380306  -3812.632411  19527.715711   -108.157483                    
V  3 -10859.667468  22483.664444  14172.461211     -0.093958                    
P  4  26564.766288    549.402278    496.307450    -56.831010                    
V  4   -641.444938   2812.544222  31717.225690     -0.053462                    
P  5  -6844.308915 -16945.135359 -19338.175365     -8.487581                    
V  5  12340.875999 -21060.178351  14377.711480     -0.005998                    
P  6  -4318.899083 -23078.851731  12433.230271   -222.047813                    
V  6   9792.472409  12394.706385  26565.654927     -0.088745                    
P  7  12159.274381  -9282.039676 -21399.062924   -227.105187                    
V  7  14634.556170  23779.413072  -2445.726173     -0.084464                    
P  8  23233.529783   6766.861025 -11204.889795    -25.736677                    
V  8 -14076.951163   2548.199552 -27339.129048     -0.013267                    
P  9  23593.861769  -7713.516749  -9530.985521   -168.120591                    
V  9  12131.007855   2251.570703  28350.105018     -0.082909                    
P 10 -11021.492948  23906.322369   2475.217597   -264.389035                    
V 10  -3977.527132   1327.512522 -31796.011424     -0.127805                    
P 11  23232.187755  12130.123856   2683.037100   -345.042735                    
V 11    972.665843   6056.495389 -30569.377151      0.108455                    
P 12 -16459.987945     85.479328  20575.004939    145.013113                    
V 12  13616.690375 -22916.480975  11031.140959     -0.041958                    
P 13 -16677.676748 -12962.043334 -16274.916361     -8.680651                    
V 13  20450.844159    432.117564 -21381.022822      0.028322                    
P 14   2221.379789  15425.071871  21856.611816    -28.832512                    
V 14 -26915.630289  -1281.957742   3513.964314      0.024845                    
P 15 -24132.210990  -4988.238384 -10695.910412   -247.654293                    
V 15  12592.317075  -4585.271032 -26672.337398      0.026349                    
P 16   5055.845189  16711.752516 -20082.493583   -130.712202                    
V 16 -14869.374682  20287.718853  13717.988969     -0.041980                    
P 17   9261.703508 -13765.798469  21153.680422    225.604321                    
V 17  25801.912054   1451.473927 -10614.455220      0.065004                    
P 18  19019.283836  15475.325584   9808.800642      5.304415                    
V 18   5259.113587  12364.469920 -28168.581155      0.016706                    
P 19    650.272904 -14596.689014  21886.573521   -191.020297                    
V 19  28358.733832   2167.457450    596.768737      0.051409                    
P 20 -14965.674893  19828.236833  -9182.734015    527.879128                    
V 20    961.623291 -12127.148729 -28218.556639      0.000162                    
P 21  -9815.095026  11884.138564 -20866.381126    -33.150053                    
V 21 -16683.142379 -22952.865955  -4789.353781      0.052748                    
P 22  15114.176707   5297.691304  21404.449267   -785.267863                    
V 22 -10637.900271  24594.289875   1560.543467     -0.002822                    
P 23  26749.618277  -1007.741691    360.198325   -132.427818                    
V 23    117.197502   3027.286483  31124.294341      0.026716                    
P 24 -19908.974006  -9670.584837  14745.128402     -9.842013                    
V 24  -8842.291240 -16970.612715 -22407.000039     -0.004968                    
P 25 -18162.076224  12535.303887  14344.085929    -10.858775                    
V 25   7040.518788 -17482.783506  24073.630916      0.017014                    
P 26  -1277.045722  23084.722598 -12902.003882    159.815055                    
V 26  -9863.278175  13448.236742  25314.677094      0.076389                    
P 27  14313.516014  12358.939436 -18911.575457   -227.444780                    
V 27 -23555.464386   1566.816934 -16590.745431     -0.108729                    
P 28  11853.316909 -23468.034088   4845.311281    735.546817                    
V 28   4671.193248  -3336.666840 -31281.900506     -0.025828                    
P 29 -24759.920404   4564.862112  -8520.052752    -47.017477                    
V 29 -10647.416395  -2309.342193  29808.171427     -0.093781                    
P 30   3935.125406 -19357.179340 -17631.312098   -166.445620                    
V 30  12911.743642  18661.290651 -17778.281117     -0.088152                    
P 31   5649.832920  23753.936253   9829.549472    -26.914099                    
V 31  -8885.415010  -9537.322964  28495.675282     -0.024814                    
P 32  -7810.982313  14806.319294  20658.803340    226.702153                    
V 32 -26137.953722   -147.299438  -9949.546831      0.094433                    
EOF
